[{"OBJECT_NAME":"OBJECT D","OBJECT_ID":"2024-203D","EPOCH":"2026-03-09T23:01:14.628576","MEAN_MOTION":15.25394324,"ECCENTRICITY":0.00105281,"INCLINATION":97.4343,"RA_OF_ASC_NODE":139.6527,"ARG_OF_PERICENTER":340.1906,"MEAN_ANOMALY":19.8921,"EPHEMERIS_TYPE":0,"CLASSIFICATION_TYPE":"U","NORAD_CAT_ID":61872,"ELEMENT_SET_NO":999,"REV_AT_EPOCH":7378,"BSTAR":0.00059366578,"MEAN_MOTION_DOT":0.00014956,"MEAN_MOTION_DDOT":0},{"OBJECT_NAME":"STARLINK-33909","OBJECT_ID":"2025-092A","EPOCH":"2026-03-09T07:44:47.668416","MEAN_MOTION":15.27595619,"ECCENTRICITY":0.00014685,"INCLINATION":42.996,"RA_OF_ASC_NODE":175.0437,"ARG_OF_PERICENTER":151.3355,"MEAN_ANOMALY":208.7577,"EPHEMERIS_TYPE":0,"CLASSIFICATION_TYPE":"U","NORAD_CAT_ID":63804,"ELEMENT_SET_NO":999,"REV_AT_EPOCH":4855,"BSTAR":0.0013471285,"MEAN_MOTION_DOT":0.00037012,"MEAN_MOTION_DDOT":0}]
